[{"OBJECT_NAME":"KUIPER-00043","OBJECT_ID":"2025-134E","EPOCH":"2026-03-09T22:00:01.999584","MEAN_MOTION":14.81364688,"ECCENTRICITY":0.00016525,"INCLINATION":51.9007,"RA_OF_ASC_NODE":232.0418,"ARG_OF_PERICENTER":110.2008,"MEAN_ANOMALY":148.1192,"EPHEMERIS_TYPE":0,"CLASSIFICATION_TYPE":"U","NORAD_CAT_ID":64504,"ELEMENT_SET_NO":999,"REV_AT_EPOCH":516,"BSTAR":0.0028433581,"MEAN_MOTION_DOT":0.0002228,"MEAN_MOTION_DDOT":0},{"OBJECT_NAME":"GEESAT-6 07","OBJECT_ID":"2025-214H","EPOCH":"2026-03-09T23:17:40.916544","MEAN_MOTION":14.8298503,"ECCENTRICITY":0.00099776,"INCLINATION":49.9797,"RA_OF_ASC_NODE":47.5625,"ARG_OF_PERICENTER":215.7737,"MEAN_ANOMALY":144.2534,"EPHEMERIS_TYPE":0,"CLASSIFICATION_TYPE":"U","NORAD_CAT_ID":65719,"ELEMENT_SET_NO":999,"REV_AT_EPOCH":2479,"BSTAR":0.00039218363,"MEAN_MOTION_DOT":2.997e-5,"MEAN_MOTION_DDOT":0}]
